{
    "links": {
        "self": "http://www.neowsapp.com/rest/v1/neo/3730800?api_key=iIulBulltgU6a56xZRHN4H3l9WmuAYTsLGpBGhQ2"
    },
    "id": "3730800",
    "neo_reference_id": "3730800",
    "name": "(2015 TR238)",
    "designation": "2015 TR238",
    "nasa_jpl_url": "http://ssd.jpl.nasa.gov/sbdb.cgi?sstr=3730800",
    "absolute_magnitude_h": 25.2,
    "estimated_diameter": {
        "kilometers": {
            "estimated_diameter_min": 0.0242412481,
            "estimated_diameter_max": 0.0542050786
        },
        "meters": {
            "estimated_diameter_min": 24.2412481101,
            "estimated_diameter_max": 54.2050786336
        },
        "miles": {
            "estimated_diameter_min": 0.0150628086,
            "estimated_diameter_max": 0.0336814639
        },
        "feet": {
            "estimated_diameter_min": 79.5316564495,
            "estimated_diameter_max": 177.8381901842
        }
    },
    "is_potentially_hazardous_asteroid": false,
    "close_approach_data": [
        {
            "close_approach_date": "2015-10-30",
            "close_approach_date_full": "2015-Oct-30 08:59",
            "epoch_date_close_approach": 1446195540000,
            "relative_velocity": {
                "kilometers_per_second": "5.3312810414",
                "kilometers_per_hour": "19192.6117491101",
                "miles_per_hour": "11925.5425615512"
            },
            "miss_distance": {
                "astronomical": "0.1240580231",
                "lunar": "48.2585709859",
                "kilometers": "18558816.012170797",
                "miles": "11531913.5280271186"
            },
            "orbiting_body": "Earth"
        },
        {
            "close_approach_date": "2121-12-04",
            "close_approach_date_full": "2121-Dec-04 14:15",
            "epoch_date_close_approach": 4794300900000,
            "relative_velocity": {
                "kilometers_per_second": "14.9804738549",
                "kilometers_per_hour": "53929.7058776879",
                "miles_per_hour": "33509.8219660556"
            },
            "miss_distance": {
                "astronomical": "0.4052061372",
                "lunar": "157.6251873708",
                "kilometers": "60617975.036047764",
                "miles": "37666263.0795725832"
            },
            "orbiting_body": "Earth"
        },
        {
            "close_approach_date": "2140-09-25",
            "close_approach_date_full": "2140-Sep-25 21:07",
            "epoch_date_close_approach": 5387893620000,
            "relative_velocity": {
                "kilometers_per_second": "15.7556380579",
                "kilometers_per_hour": "56720.2970084818",
                "miles_per_hour": "35243.7867717425"
            },
            "miss_distance": {
                "astronomical": "0.3952804207",
                "lunar": "153.7640836523",
                "kilometers": "59133108.989423909",
                "miles": "36743610.1021875842"
            },
            "orbiting_body": "Earth"
        },
        {
            "close_approach_date": "2155-11-28",
            "close_approach_date_full": "2155-Nov-28 13:46",
            "epoch_date_close_approach": 5866695960000,
            "relative_velocity": {
                "kilometers_per_second": "11.3463983816",
                "kilometers_per_hour": "40847.0341737179",
                "miles_per_hour": "25380.7585397749"
            },
            "miss_distance": {
                "astronomical": "0.2677753996",
                "lunar": "104.1646304444",
                "kilometers": "40058629.418558852",
                "miles": "24891278.0967900776"
            },
            "orbiting_body": "Earth"
        },
        {
            "close_approach_date": "2174-10-15",
            "close_approach_date_full": "2174-Oct-15 00:53",
            "epoch_date_close_approach": 6462463980000,
            "relative_velocity": {
                "kilometers_per_second": "9.4228103856",
                "kilometers_per_hour": "33922.1173882504",
                "miles_per_hour": "21077.8845516048"
            },
            "miss_distance": {
                "astronomical": "0.2385170292",
                "lunar": "92.7831243588",
                "kilometers": "35681639.527047804",
                "miles": "22171542.6940115352"
            },
            "orbiting_body": "Earth"
        }
    ],
    "orbital_data": {
        "orbit_id": "13",
        "orbit_determination_date": "2017-04-06 08:31:14",
        "first_observation_date": "2015-10-15",
        "last_observation_date": "2015-12-03",
        "data_arc_in_days": 49,
        "observations_used": 46,
        "orbit_uncertainty": "6",
        "minimum_orbit_intersection": ".116414",
        "jupiter_tisserand_invariant": "3.284",
        "epoch_osculation": "2459000.5",
        "eccentricity": ".5444874163682784",
        "semi_major_axis": "2.433275144240345",
        "inclination": "3.26127857051763",
        "ascending_node_longitude": "212.9527950401421",
        "orbital_period": "1386.389487593732",
        "perihelion_distance": "1.108387447639769",
        "perihelion_argument": "186.4287644202403",
        "aphelion_distance": "3.75816284084092",
        "perihelion_time": "2458721.761585873144",
        "mean_anomaly": "72.37924838843954",
        "mean_motion": ".2596672891864096",
        "equinox": "J2000",
        "orbit_class": {
            "orbit_class_type": "AMO",
            "orbit_class_description": "Near-Earth asteroid orbits similar to that of 1221 Amor",
            "orbit_class_range": "1.017 AU < q (perihelion) < 1.3 AU"
        }
    },
    "is_sentry_object": false
}